start=new Date('2021-11-25T00:00:00.000Z').valueOf();
sats=[{"BSTAR":"-0.00024214000000","REF_FRAME":"TEME","FILE":"3223205","MEAN_ANOMALY":"121.3708","LAUNCH_DATE":"2021-05-09","MEAN_MOTION_DOT":"-0.00003886","NORAD_CAT_ID":"48431","CENTER_NAME":"EARTH","CLASSIFICATION_TYPE":"U","INCLINATION":"53.0545","EPHEMERIS_TYPE":"0","APOAPSIS":"548.527","GP_ID":"190426525","OBJECT_TYPE":"PAYLOAD","SITE":"AFETR","MEAN_MOTION":"15.06397061","ARG_OF_PERICENTER":"49.5046","PERIAPSIS":"545.918","OBJECT_NAME":"STARLINK-2700","EPOCH":"2021-11-24T22:00:00.999936","COUNTRY_CODE":"US","ELEMENT_SET_NO":"999","MEAN_MOTION_DDOT":"0.0000000000000","MEAN_ELEMENT_THEORY":"SGP4","PERIOD":"95.592","TLE_LINE2":"2 48431  53.0545 340.6407 0001884  49.5046 121.3708 15.06397061  3606","RA_OF_ASC_NODE":"340.6407","SEMIMAJOR_AXIS":"6925.358","OBJECT_ID":"2021-040D","RCS_SIZE":"LARGE","ECCENTRICITY":"0.00018840","TIME_SYSTEM":"UTC","REV_AT_EPOCH":"360","TLE_LINE1":"1 48431U 21040D   21328.91667824 -.00003886  00000-0 -24214-3 0  9999","DECAY_DATE":null},{"NORAD_CAT_ID":"48432","CENTER_NAME":"EARTH","CLASSIFICATION_TYPE":"U","INCLINATION":"53.0544","OBJECT_TYPE":"PAYLOAD","EPHEMERIS_TYPE":"0","APOAPSIS":"548.644","GP_ID":"190426552","REF_FRAME":"TEME","FILE":"3223205","MEAN_ANOMALY":"60.2131","BSTAR":"-0.00004535600000","MEAN_MOTION_DOT":"-0.00000957","LAUNCH_DATE":"2021-05-09","RCS_SIZE":"LARGE","ECCENTRICITY":"0.00020440","REV_AT_EPOCH":"360","TIME_SYSTEM":"UTC","DECAY_DATE":null,"TLE_LINE1":"1 48432U 21040E   21328.91667824 -.00000957  00000-0 -45356-4 0  9997","ARG_OF_PERICENTER":"58.1634","MEAN_MOTION":"15.06395019","SITE":"AFETR","ELEMENT_SET_NO":"999","PERIAPSIS":"545.813","OBJECT_NAME":"STARLINK-2680","EPOCH":"2021-11-24T22:00:00.999936","COUNTRY_CODE":"US","MEAN_ELEMENT_THEORY":"SGP4","MEAN_MOTION_DDOT":"0.0000000000000","OBJECT_ID":"2021-040E","TLE_LINE2":"2 48432  53.0544 335.6408 0002044  58.1634  60.2131 15.06395019  3601","PERIOD":"95.592","RA_OF_ASC_NODE":"335.6408","SEMIMAJOR_AXIS":"6925.364"},{"MEAN_MOTION_DOT":"0.00048835","LAUNCH_DATE":"2021-05-09","REF_FRAME":"TEME","FILE":"3223205","MEAN_ANOMALY":"303.4720","BSTAR":"0.00327800000000","OBJECT_TYPE":"PAYLOAD","GP_ID":"190425771","EPHEMERIS_TYPE":"0","APOAPSIS":"548.621","CLASSIFICATION_TYPE":"U","INCLINATION":"53.0536","CENTER_NAME":"EARTH","NORAD_CAT_ID":"48433","OBJECT_ID":"2021-040F","SEMIMAJOR_AXIS":"6925.462","RA_OF_ASC_NODE":"340.6382","PERIOD":"95.594","TLE_LINE2":"2 48433  53.0536 340.6382 0001868  47.4719 303.4720 15.06362946  3595","MEAN_ELEMENT_THEORY":"SGP4","MEAN_MOTION_DDOT":"0.0000000000000","ELEMENT_SET_NO":"999","EPOCH":"2021-11-24T22:00:00.999936","COUNTRY_CODE":"US","OBJECT_NAME":"STARLINK-2699","PERIAPSIS":"546.033","ARG_OF_PERICENTER":"47.4719","MEAN_MOTION":"15.06362946","SITE":"AFETR","DECAY_DATE":null,"TLE_LINE1":"1 48433U 21040F   21328.91667824  .00048835  00000-0  32780-2 0  9998","REV_AT_EPOCH":"359","TIME_SYSTEM":"UTC","ECCENTRICITY":"0.00018680","RCS_SIZE":"LARGE"},{"ECCENTRICITY":"0.00018690","RCS_SIZE":"LARGE","TLE_LINE1":"1 48434U 21040G   21328.91667824  .00004032  00000-0  28945-3 0  9999","DECAY_DATE":null,"TIME_SYSTEM":"UTC","REV_AT_EPOCH":"359","PERIAPSIS":"545.941","OBJECT_NAME":"STARLINK-2692","COUNTRY_CODE":"US","EPOCH":"2021-11-24T22:00:00.999936","ELEMENT_SET_NO":"999","MEAN_MOTION":"15.06392773","SITE":"AFETR","ARG_OF_PERICENTER":"48.2692","PERIOD":"95.593","TLE_LINE2":"2 48434  53.0549 345.6398 0001869  48.2692 255.1086 15.06392773  3591","RA_OF_ASC_NODE":"345.6398","SEMIMAJOR_AXIS":"6925.371","OBJECT_ID":"2021-040G","MEAN_MOTION_DDOT":"0.0000000000000","MEAN_ELEMENT_THEORY":"SGP4","INCLINATION":"53.0549","CLASSIFICATION_TYPE":"U","NORAD_CAT_ID":"48434","CENTER_NAME":"EARTH","APOAPSIS":"548.530","EPHEMERIS_TYPE":"0","GP_ID":"190426931","OBJECT_TYPE":"PAYLOAD","LAUNCH_DATE":"2021-05-09","MEAN_MOTION_DOT":"0.00004032","BSTAR":"0.00028945000000","FILE":"3223205","MEAN_ANOMALY":"255.1086","REF_FRAME":"TEME"},{"GP_ID":"190399050","APOAPSIS":"553.154","EPHEMERIS_TYPE":"0","OBJECT_TYPE":"PAYLOAD","INCLINATION":"53.0565","CLASSIFICATION_TYPE":"U","CENTER_NAME":"EARTH","NORAD_CAT_ID":"48435","LAUNCH_DATE":"2021-05-09","MEAN_MOTION_DOT":"-0.00000219","BSTAR":"0.00000407110000","FILE":"3223022","MEAN_ANOMALY":"285.4579","REF_FRAME":"TEME","TLE_LINE1":"1 48435U 21040H   21328.25343564 -.00000219  00000-0  40711-5 0  9990","DECAY_DATE":null,"TIME_SYSTEM":"UTC","REV_AT_EPOCH":"3075","ECCENTRICITY":"0.00013620","RCS_SIZE":"LARGE","SEMIMAJOR_AXIS":"6930.345","RA_OF_ASC_NODE":"357.2360","PERIOD":"95.696","TLE_LINE2":"2 48435  53.0565 357.2360 0001362  74.6560 285.4579 15.04771142 30753","OBJECT_ID":"2021-040H","MEAN_MOTION_DDOT":"0.0000000000000","MEAN_ELEMENT_THEORY":"SGP4","EPOCH":"2021-11-24T06:04:56.839296","COUNTRY_CODE":"US","OBJECT_NAME":"STARLINK-2633","PERIAPSIS":"551.266","ELEMENT_SET_NO":"999","SITE":"AFETR","MEAN_MOTION":"15.04771142","ARG_OF_PERICENTER":"74.6560"},{"CLASSIFICATION_TYPE":"U","INCLINATION":"53.0555","NORAD_CAT_ID":"48436","CENTER_NAME":"EARTH","OBJECT_TYPE":"PAYLOAD","EPHEMERIS_TYPE":"0","APOAPSIS":"548.253","GP_ID":"190399353","MEAN_MOTION_DOT":"0.00000421","LAUNCH_DATE":"2021-05-09","MEAN_ANOMALY":"292.3545","FILE":"3223022","REF_FRAME":"TEME","BSTAR":"0.00004716500000","ECCENTRICITY":"0.00015130","RCS_SIZE":"LARGE","DECAY_DATE":null,"TLE_LINE1":"1 48436U 21040J   21328.50741260  .00000421  00000-0  47165-4 0  9997","REV_AT_EPOCH":"3056","TIME_SYSTEM":"UTC","ELEMENT_SET_NO":"999","PERIAPSIS":"546.157","OBJECT_NAME":"STARLINK-2639","COUNTRY_CODE":"US","EPOCH":"2021-11-24T12:10:40.448640","ARG_OF_PERICENTER":"67.7604","SITE":"AFETR","MEAN_MOTION":"15.06402736","OBJECT_ID":"2021-040J","TLE_LINE2":"2 48436  53.0555  12.4786 0001513  67.7604 292.3545 15.06402736 30566","PERIOD":"95.592","SEMIMAJOR_AXIS":"6925.340","RA_OF_ASC_NODE":"12.4786","MEAN_ELEMENT_THEORY":"SGP4","MEAN_MOTION_DDOT":"0.0000000000000"},{"FILE":"3223022","REF_FRAME":"TEME","MEAN_ANOMALY":"274.2991","BSTAR":"0.00003287500000","MEAN_MOTION_DOT":"0.00000192","LAUNCH_DATE":"2021-05-09","NORAD_CAT_ID":"48437","CENTER_NAME":"EARTH","CLASSIFICATION_TYPE":"U","INCLINATION":"53.0214","OBJECT_TYPE":"PAYLOAD","APOAPSIS":"552.954","EPHEMERIS_TYPE":"0","GP_ID":"190399599","ARG_OF_PERICENTER":"85.8118","MEAN_MOTION":"15.04769015","SITE":"AFETR","ELEMENT_SET_NO":"999","PERIAPSIS":"551.479","OBJECT_NAME":"STARLINK-2642","COUNTRY_CODE":"US","EPOCH":"2021-11-24T08:34:56.453376","MEAN_ELEMENT_THEORY":"SGP4","MEAN_MOTION_DDOT":"0.0000000000000","OBJECT_ID":"2021-040K","PERIOD":"95.696","TLE_LINE2":"2 48437  53.0214  23.3135 0001064  85.8118 274.2991 15.04769015 30401","RA_OF_ASC_NODE":"23.3135","SEMIMAJOR_AXIS":"6930.352","RCS_SIZE":"MEDIUM","ECCENTRICITY":"0.00010640","REV_AT_EPOCH":"3040","TIME_SYSTEM":"UTC","DECAY_DATE":null,"TLE_LINE1":"1 48437U 21040K   21328.35759784  .00000192  00000-0  32875-4 0  9998"},{"DECAY_DATE":null,"TLE_LINE1":"1 48438U 21040L   21328.63642362  .00000346  00000-0  42147-4 0  9997","REV_AT_EPOCH":"3058","TIME_SYSTEM":"UTC","ECCENTRICITY":"0.00013040","RCS_SIZE":"LARGE","OBJECT_ID":"2021-040L","RA_OF_ASC_NODE":"11.9089","SEMIMAJOR_AXIS":"6925.343","TLE_LINE2":"2 48438  53.0567  11.9089 0001304  70.0163 290.0967 15.06401967 30586","PERIOD":"95.592","MEAN_ELEMENT_THEORY":"SGP4","MEAN_MOTION_DDOT":"0.0000000000000","ELEMENT_SET_NO":"999","EPOCH":"2021-11-24T15:16:27.000768","COUNTRY_CODE":"US","PERIAPSIS":"546.304","OBJECT_NAME":"STARLINK-2640","ARG_OF_PERICENTER":"70.0163","SITE":"AFETR","MEAN_MOTION":"15.06401967","OBJECT_TYPE":"PAYLOAD","GP_ID":"190427159","EPHEMERIS_TYPE":"0","APOAPSIS":"548.111","INCLINATION":"53.0567","CLASSIFICATION_TYPE":"U","CENTER_NAME":"EARTH","NORAD_CAT_ID":"48438","MEAN_MOTION_DOT":"0.00000346","LAUNCH_DATE":"2021-05-09","REF_FRAME":"TEME","FILE":"3223205","MEAN_ANOMALY":"290.0967","BSTAR":"0.00004214700000"},{"ECCENTRICITY":"0.00014240","RCS_SIZE":"LARGE","TLE_LINE1":"1 48439U 21040M   21328.50004393  .00000158  00000-0  29525-4 0  9996","DECAY_DATE":null,"TIME_SYSTEM":"UTC","REV_AT_EPOCH":"3184","OBJECT_NAME":"STARLINK-2583","PERIAPSIS":"546.251","COUNTRY_CODE":"US","EPOCH":"2021-11-24T12:00:03.795552","ELEMENT_SET_NO":"999","SITE":"AFETR","MEAN_MOTION":"15.06392173","ARG_OF_PERICENTER":"74.4678","PERIOD":"95.593","TLE_LINE2":"2 48439  53.0563  12.5263 0001424  74.4678 285.6468 15.06392173 31840","RA_OF_ASC_NODE":"12.5263","SEMIMAJOR_AXIS":"6925.373","OBJECT_ID":"2021-040M","MEAN_MOTION_DDOT":"0.0000000000000","MEAN_ELEMENT_THEORY":"SGP4","INCLINATION":"53.0563","CLASSIFICATION_TYPE":"U","NORAD_CAT_ID":"48439","CENTER_NAME":"EARTH","APOAPSIS":"548.224","EPHEMERIS_TYPE":"0","GP_ID":"190402715","OBJECT_TYPE":"PAYLOAD","LAUNCH_DATE":"2021-05-09","MEAN_MOTION_DOT":"0.00000158","BSTAR":"0.00002952500000","REF_FRAME":"TEME","FILE":"3223168","MEAN_ANOMALY":"285.6468"},{"ECCENTRICITY":"0.00013790","RCS_SIZE":"LARGE","TLE_LINE1":"1 48440U 21040N   21328.49635743  .00000007  00000-0  19390-4 0  9997","DECAY_DATE":null,"TIME_SYSTEM":"UTC","REV_AT_EPOCH":"3056","EPOCH":"2021-11-24T11:54:45.281952","COUNTRY_CODE":"US","PERIAPSIS":"546.282","OBJECT_NAME":"STARLINK-2682","ELEMENT_SET_NO":"999","SITE":"AFETR","MEAN_MOTION":"15.06392316","ARG_OF_PERICENTER":"75.9770","SEMIMAJOR_AXIS":"6925.372","RA_OF_ASC_NODE":"12.5248","TLE_LINE2":"2 48440  53.0583  12.5248 0001379  75.9770 284.1373 15.06392316 30561","PERIOD":"95.593","OBJECT_ID":"2021-040N","MEAN_MOTION_DDOT":"0.0000000000000","MEAN_ELEMENT_THEORY":"SGP4","INCLINATION":"53.0583","CLASSIFICATION_TYPE":"U","CENTER_NAME":"EARTH","NORAD_CAT_ID":"48440","GP_ID":"190399065","APOAPSIS":"548.192","EPHEMERIS_TYPE":"0","OBJECT_TYPE":"PAYLOAD","LAUNCH_DATE":"2021-05-09","MEAN_MOTION_DOT":"0.00000007","BSTAR":"0.00001939000000","FILE":"3223022","MEAN_ANOMALY":"284.1373","REF_FRAME":"TEME"}];
